[{"OBJECT_NAME":"ONEWEB-0375","OBJECT_ID":"2021-090Y","EPOCH":"2025-07-28T20:17:48.898176","MEAN_MOTION":13.20771019,"ECCENTRICITY":0.0001905,"INCLINATION":87.9288,"RA_OF_ASC_NODE":338.8574,"ARG_OF_PERICENTER":117.6888,"MEAN_ANOMALY":242.4438,"EPHEMERIS_TYPE":0,"CLASSIFICATION_TYPE":"U","NORAD_CAT_ID":49301,"ELEMENT_SET_NO":999,"REV_AT_EPOCH":18913,"BSTAR":7.4031e-5,"MEAN_MOTION_DOT":4.3e-7,"MEAN_MOTION_DDOT":0},{"OBJECT_NAME":"ONEWEB-0376","OBJECT_ID":"2021-090Z","EPOCH":"2025-07-28T12:38:01.021344","MEAN_MOTION":13.19727993,"ECCENTRICITY":0.0002048,"INCLINATION":87.9229,"RA_OF_ASC_NODE":9.2859,"ARG_OF_PERICENTER":88.7962,"MEAN_ANOMALY":271.3406,"EPHEMERIS_TYPE":0,"CLASSIFICATION_TYPE":"U","NORAD_CAT_ID":49302,"ELEMENT_SET_NO":999,"REV_AT_EPOCH":18376,"BSTAR":0.00017486,"MEAN_MOTION_DOT":8.3e-7,"MEAN_MOTION_DDOT":0},{"OBJECT_NAME":"ONEWEB-0377","OBJECT_ID":"2021-090AA","EPOCH":"2025-07-28T14:30:15.719904","MEAN_MOTION":13.20773579,"ECCENTRICITY":0.0001622,"INCLINATION":87.9289,"RA_OF_ASC_NODE":338.8984,"ARG_OF_PERICENTER":100.0312,"MEAN_ANOMALY":260.1005,"EPHEMERIS_TYPE":0,"CLASSIFICATION_TYPE":"U","NORAD_CAT_ID":49303,"ELEMENT_SET_NO":999,"REV_AT_EPOCH":18780,"BSTAR":9.4844e-5,"MEAN_MOTION_DOT":5.2e-7,"MEAN_MOTION_DDOT":0},{"OBJECT_NAME":"ONEWEB-0378","OBJECT_ID":"2021-090AB","EPOCH":"2025-07-28T15:02:05.967744","MEAN_MOTION":13.2077148,"ECCENTRICITY":0.0001914,"INCLINATION":87.93,"RA_OF_ASC_NODE":338.9028,"ARG_OF_PERICENTER":102.5982,"MEAN_ANOMALY":257.5366,"EPHEMERIS_TYPE":0,"CLASSIFICATION_TYPE":"U","NORAD_CAT_ID":49304,"ELEMENT_SET_NO":999,"REV_AT_EPOCH":18707,"BSTAR":9.5532e-5,"MEAN_MOTION_DOT":5.2e-7,"MEAN_MOTION_DDOT":0},{"OBJECT_NAME":"ONEWEB-0379","OBJECT_ID":"2021-090AC","EPOCH":"2025-07-28T11:04:02.942688","MEAN_MOTION":13.14504531,"ECCENTRICITY":0.0001927,"INCLINATION":87.9066,"RA_OF_ASC_NODE":354.1198,"ARG_OF_PERICENTER":97.5608,"MEAN_ANOMALY":262.5741,"EPHEMERIS_TYPE":0,"CLASSIFICATION_TYPE":"U","NORAD_CAT_ID":49305,"ELEMENT_SET_NO":999,"REV_AT_EPOCH":18503,"BSTAR":0.00044587,"MEAN_MOTION_DOT":1.78e-6,"MEAN_MOTION_DDOT":0},{"OBJECT_NAME":"ONEWEB-0380","OBJECT_ID":"2021-090AD","EPOCH":"2025-07-28T10:44:16.795104","MEAN_MOTION":13.19726767,"ECCENTRICITY":0.000168,"INCLINATION":87.9227,"RA_OF_ASC_NODE":9.3305,"ARG_OF_PERICENTER":97.9329,"MEAN_ANOMALY":262.1995,"EPHEMERIS_TYPE":0,"CLASSIFICATION_TYPE":"U","NORAD_CAT_ID":49306,"ELEMENT_SET_NO":999,"REV_AT_EPOCH":18372,"BSTAR":2.4948e-6,"MEAN_MOTION_DOT":1.4e-7,"MEAN_MOTION_DDOT":0},{"OBJECT_NAME":"ONEWEB-0381","OBJECT_ID":"2021-090AE","EPOCH":"2025-07-28T14:25:30.775296","MEAN_MOTION":13.2077233,"ECCENTRICITY":0.0001853,"INCLINATION":87.9298,"RA_OF_ASC_NODE":338.9077,"ARG_OF_PERICENTER":107.6854,"MEAN_ANOMALY":252.4482,"EPHEMERIS_TYPE":0,"CLASSIFICATION_TYPE":"U","NORAD_CAT_ID":49307,"ELEMENT_SET_NO":999,"REV_AT_EPOCH":18711,"BSTAR":0.00022512,"MEAN_MOTION_DOT":1.05e-6,"MEAN_MOTION_DDOT":0},{"OBJECT_NAME":"ONEWEB-0382","OBJECT_ID":"2021-090AF","EPOCH":"2025-07-28T14:07:21.262656","MEAN_MOTION":13.20771805,"ECCENTRICITY":0.0002024,"INCLINATION":87.9287,"RA_OF_ASC_NODE":338.9031,"ARG_OF_PERICENTER":107.9224,"MEAN_ANOMALY":252.213,"EPHEMERIS_TYPE":0,"CLASSIFICATION_TYPE":"U","NORAD_CAT_ID":49308,"ELEMENT_SET_NO":999,"REV_AT_EPOCH":18710,"BSTAR":8.5261e-5,"MEAN_MOTION_DOT":4.8e-7,"MEAN_MOTION_DDOT":0},{"OBJECT_NAME":"ONEWEB-0383","OBJECT_ID":"2021-090AG","EPOCH":"2025-07-28T10:54:55.092384","MEAN_MOTION":13.14502441,"ECCENTRICITY":0.0001991,"INCLINATION":87.906,"RA_OF_ASC_NODE":354.1002,"ARG_OF_PERICENTER":98.7384,"MEAN_ANOMALY":261.3971,"EPHEMERIS_TYPE":0,"CLASSIFICATION_TYPE":"U","NORAD_CAT_ID":49309,"ELEMENT_SET_NO":999,"REV_AT_EPOCH":18506,"BSTAR":3.9452e-5,"MEAN_MOTION_DOT":2.7e-7,"MEAN_MOTION_DDOT":0},{"OBJECT_NAME":"ONEWEB-0384","OBJECT_ID":"2021-090AH","EPOCH":"2025-07-28T10:22:52.939488","MEAN_MOTION":13.20786565,"ECCENTRICITY":0.0002211,"INCLINATION":87.93,"RA_OF_ASC_NODE":338.9528,"ARG_OF_PERICENTER":111.6613,"MEAN_ANOMALY":248.4756,"EPHEMERIS_TYPE":0,"CLASSIFICATION_TYPE":"U","NORAD_CAT_ID":49310,"ELEMENT_SET_NO":999,"REV_AT_EPOCH":18709,"BSTAR":-6.5275e-5,"MEAN_MOTION_DOT":-1.4e-7,"MEAN_MOTION_DDOT":0},{"OBJECT_NAME":"ONEWEB-0385","OBJECT_ID":"2021-090AJ","EPOCH":"2025-07-28T10:17:47.567328","MEAN_MOTION":13.20771464,"ECCENTRICITY":0.0001933,"INCLINATION":87.9276,"RA_OF_ASC_NODE":338.9504,"ARG_OF_PERICENTER":102.5306,"MEAN_ANOMALY":257.6044,"EPHEMERIS_TYPE":0,"CLASSIFICATION_TYPE":"U","NORAD_CAT_ID":49311,"ELEMENT_SET_NO":999,"REV_AT_EPOCH":18706,"BSTAR":-9.4846e-5,"MEAN_MOTION_DOT":-2.6e-7,"MEAN_MOTION_DDOT":0},{"OBJECT_NAME":"ONEWEB-0386","OBJECT_ID":"2021-090AK","EPOCH":"2025-07-28T10:42:47.499840","MEAN_MOTION":13.20772769,"ECCENTRICITY":0.0002066,"INCLINATION":87.9286,"RA_OF_ASC_NODE":338.918,"ARG_OF_PERICENTER":105.4905,"MEAN_ANOMALY":254.6456,"EPHEMERIS_TYPE":0,"CLASSIFICATION_TYPE":"U","NORAD_CAT_ID":49312,"ELEMENT_SET_NO":999,"REV_AT_EPOCH":18708,"BSTAR":4.0076e-5,"MEAN_MOTION_DOT":2.9e-7,"MEAN_MOTION_DDOT":0},{"OBJECT_NAME":"ONEWEB-0387","OBJECT_ID":"2021-090AL","EPOCH":"2025-07-28T10:20:05.548128","MEAN_MOTION":13.20771488,"ECCENTRICITY":0.0001705,"INCLINATION":87.9276,"RA_OF_ASC_NODE":338.979,"ARG_OF_PERICENTER":107.2823,"MEAN_ANOMALY":252.8497,"EPHEMERIS_TYPE":0,"CLASSIFICATION_TYPE":"U","NORAD_CAT_ID":49313,"ELEMENT_SET_NO":999,"REV_AT_EPOCH":18708,"BSTAR":-1.505e-5,"MEAN_MOTION_DOT":7.0e-8,"MEAN_MOTION_DDOT":0},{"OBJECT_NAME":"ONEWEB-0388","OBJECT_ID":"2021-090AM","EPOCH":"2025-07-28T19:43:20.029440","MEAN_MOTION":13.19726487,"ECCENTRICITY":0.0001887,"INCLINATION":87.9232,"RA_OF_ASC_NODE":9.2622,"ARG_OF_PERICENTER":97.9622,"MEAN_ANOMALY":262.1724,"EPHEMERIS_TYPE":0,"CLASSIFICATION_TYPE":"U","NORAD_CAT_ID":49314,"ELEMENT_SET_NO":999,"REV_AT_EPOCH":18505,"BSTAR":-0.00016034,"MEAN_MOTION_DOT":-5.1e-7,"MEAN_MOTION_DDOT":0},{"OBJECT_NAME":"ONEWEB-0389","OBJECT_ID":"2021-132A","EPOCH":"2025-07-28T15:13:57.653184","MEAN_MOTION":13.17650571,"ECCENTRICITY":0.0001539,"INCLINATION":87.9045,"RA_OF_ASC_NODE":70.2685,"ARG_OF_PERICENTER":96.3165,"MEAN_ANOMALY":263.8142,"EPHEMERIS_TYPE":0,"CLASSIFICATION_TYPE":"U","NORAD_CAT_ID":50469,"ELEMENT_SET_NO":999,"REV_AT_EPOCH":17547,"BSTAR":0.00022646,"MEAN_MOTION_DOT":1.01e-6,"MEAN_MOTION_DDOT":0},{"OBJECT_NAME":"ONEWEB-0390","OBJECT_ID":"2021-132B","EPOCH":"2025-07-28T15:16:23.257920","MEAN_MOTION":13.17649887,"ECCENTRICITY":0.0001577,"INCLINATION":87.9041,"RA_OF_ASC_NODE":70.2758,"ARG_OF_PERICENTER":76.0457,"MEAN_ANOMALY":284.085,"EPHEMERIS_TYPE":0,"CLASSIFICATION_TYPE":"U","NORAD_CAT_ID":50470,"ELEMENT_SET_NO":999,"REV_AT_EPOCH":17547,"BSTAR":0.00018072,"MEAN_MOTION_DOT":8.3e-7,"MEAN_MOTION_DDOT":0},{"OBJECT_NAME":"ONEWEB-0391","OBJECT_ID":"2021-132C","EPOCH":"2025-07-28T13:29:27.829824","MEAN_MOTION":13.17650458,"ECCENTRICITY":0.0001084,"INCLINATION":87.9039,"RA_OF_ASC_NODE":70.3052,"ARG_OF_PERICENTER":106.0063,"MEAN_ANOMALY":254.1188,"EPHEMERIS_TYPE":0,"CLASSIFICATION_TYPE":"U","NORAD_CAT_ID":50471,"ELEMENT_SET_NO":999,"REV_AT_EPOCH":17546,"BSTAR":-8.8577e-5,"MEAN_MOTION_DOT":-2.2e-7,"MEAN_MOTION_DDOT":0}]
