ONEWEB-0375             
1 49301U 21090Y   25209.84570484  .00000043  00000+0  74031-4 0  9992
2 49301  87.9288 338.8574 0001905 117.6888 242.4438 13.20771019189133
ONEWEB-0376             
1 49302U 21090Z   25209.52640071  .00000083  00000+0  17486-3 0  9992
2 49302  87.9229   9.2859 0002048  88.7962 271.3406 13.19727993183763
ONEWEB-0377             
1 49303U 21090AA  25209.60434861  .00000052  00000+0  94844-4 0  9990
2 49303  87.9289 338.8984 0001622 100.0312 260.1005 13.20773579187807
ONEWEB-0378             
1 49304U 21090AB  25209.62645796  .00000052  00000+0  95532-4 0  9999
2 49304  87.9300 338.9028 0001914 102.5982 257.5366 13.20771480187074
ONEWEB-0379             
1 49305U 21090AC  25209.46114517  .00000178  00000+0  44587-3 0  9996
2 49305  87.9066 354.1198 0001927  97.5608 262.5741 13.14504531185035
ONEWEB-0380             
1 49306U 21090AD  25209.44741661  .00000014  00000+0  24948-5 0  9991
2 49306  87.9227   9.3305 0001680  97.9329 262.1995 13.19726767183727
ONEWEB-0381             
1 49307U 21090AE  25209.60105064  .00000105  00000+0  22512-3 0  9995
2 49307  87.9298 338.9077 0001853 107.6854 252.4482 13.20772330187116
ONEWEB-0382             
1 49308U 21090AF  25209.58844054  .00000048  00000+0  85261-4 0  9999
2 49308  87.9287 338.9031 0002024 107.9224 252.2130 13.20771805187103
ONEWEB-0383             
1 49309U 21090AG  25209.45480431  .00000027  00000+0  39452-4 0  9999
2 49309  87.9060 354.1002 0001991  98.7384 261.3971 13.14502441185065
ONEWEB-0384             
1 49310U 21090AH  25209.43255717 -.00000014  00000+0 -65275-4 0  9996
2 49310  87.9300 338.9528 0002211 111.6613 248.4756 13.20786565187093
ONEWEB-0385             
1 49311U 21090AJ  25209.42902277 -.00000026  00000+0 -94846-4 0  9995
2 49311  87.9276 338.9504 0001933 102.5306 257.6044 13.20771464187069
ONEWEB-0386             
1 49312U 21090AK  25209.44638310  .00000029  00000+0  40076-4 0  9999
2 49312  87.9286 338.9180 0002066 105.4905 254.6456 13.20772769187081
ONEWEB-0387             
1 49313U 21090AL  25209.43061977  .00000007  00000+0 -15050-4 0  9999
2 49313  87.9276 338.9790 0001705 107.2823 252.8497 13.20771488187088
ONEWEB-0388             
1 49314U 21090AM  25209.82175960 -.00000051  00000+0 -16034-3 0  9993
2 49314  87.9232   9.2622 0001887  97.9622 262.1724 13.19726487185055
ONEWEB-0389             
1 50469U 21132A   25209.63469506  .00000101  00000+0  22646-3 0  9994
2 50469  87.9045  70.2685 0001539  96.3165 263.8142 13.17650571175471
ONEWEB-0390             
1 50470U 21132B   25209.63638030  .00000083  00000+0  18072-3 0  9993
2 50470  87.9041  70.2758 0001577  76.0457 284.0850 13.17649887175470
ONEWEB-0391             
1 50471U 21132C   25209.56212766 -.00000022  00000+0 -88577-4 0  9993
2 50471  87.9039  70.3052 0001084 106.0063 254.1188 13.17650458175463
